OBJECT_NAME,OBJECT_ID,EPOCH,MEAN_MOTION,ECCENTRICITY,INCLINATION,RA_OF_ASC_NODE,ARG_OF_PERICENTER,MEAN_ANOMALY,EPHEMERIS_TYPE,CLASSIFICATION_TYPE,NORAD_CAT_ID,ELEMENT_SET_NO,REV_AT_EPOCH,BSTAR,MEAN_MOTION_DOT,MEAN_MOTION_DDOT
PERSEUS-M1,2014-033AF,2026-06-06T15:59:16.611072,14.95601690,.00108608,97.9642,101.6258,341.2925,18.7895,0,U,40039,999,64906,.25013004E-3,.2719E-4,0
POLYITAN-1,2014-033AJ,2026-06-06T20:53:05.003520,15.32894505,.00078354,98.0951,183.1584,171.6009,188.5364,0,U,40042,999,65201,.66512724E-3,.21098E-3,0
AEROCUBE 6A,2014-033AM,2026-06-07T00:06:18.260064,14.97996925,.0039323,97.7225,325.0620,51.5836,308.8906,0,U,40045,999,64509,.60504134E-3,.72E-4,0
AEROCUBE 6B,2014-033AN,2026-06-07T05:12:14.989824,14.99460154,.00389348,97.7234,325.0394,43.1122,317.3139,0,U,40046,999,64526,.60745071E-3,.751E-4,0
CANX-4,2014-034C,2026-06-06T22:50:27.400128,14.81245872,.00138071,98.3134,32.8885,48.0751,312.1635,0,U,40055,999,64301,.13745349E-3,.1015E-4,0
CANX-5,2014-034D,2026-06-06T21:11:05.902944,14.81262857,.00138058,98.3137,32.8600,48.4720,311.7673,0,U,40056,999,63381,.13859388E-3,.1024E-4,0
UKUBE-1,2014-037F,2026-06-07T06:01:40.341504,15.13394212,.0002055,98.4243,160.4805,144.3417,215.7950,0,U,40074,999,64705,.47747101E-3,.8449E-4,0
BRITE-PL2 (HEWELIUSZ),2014-049B,2026-06-06T04:37:17.262624,14.94554868,.00150514,97.9087,269.1089,141.6770,218.5523,0,U,40119,999,63980,.30174932E-3,.321E-4,0
AEROCUBE 5C,2015-058B,2026-06-07T02:42:20.600352,14.91405632,.01303756,64.7683,293.9303,67.2175,294.2650,0,U,40965,999,36415,.2761376E-3,.3078E-4,0
AEROCUBE 7,2015-058C,2026-06-07T01:42:08.032320,14.95660102,.01200994,64.7629,276.5006,65.7312,295.6293,0,U,40966,999,36444,.33773136E-3,.4175E-4,0
FOX-1A (AO-85),2015-058D,2026-06-06T14:53:26.022048,14.90916620,.01298912,64.7764,311.8208,60.7292,300.6731,0,U,40967,999,11199,.30157666E-3,.3329E-4,0
SINOD-D 1,2015-058E,2026-06-07T02:48:24.194016,14.95839766,.01184839,64.7760,290.4471,57.0968,304.1480,0,U,40968,999,11515,.33912235E-3,.4197E-4,0
SNAP-3 ALICE,2015-058G,2026-06-07T05:32:00.282048,15.57814323,.00310263,64.7499,138.2889,17.6779,342.5437,0,U,40970,999,11533,.15421345E-2,.119614E-2,0
LMRST-SAT,2015-058H,2026-06-06T18:35:03.231744,14.90541819,.01315583,64.7770,307.6608,62.6902,298.7533,0,U,40971,999,11200,.30546735E-3,.3354E-4,0
SNAP-3 EDDIE,2015-058J,2026-06-06T15:37:26.451840,15.58856529,.00309359,64.7422,131.0874,22.1287,338.1185,0,U,40972,999,11738,.16759929E-2,.135511E-2,0
PROPCUBE 3,2015-058K,2026-06-06T15:13:54.879744,14.94197291,.0123585,64.7695,285.5042,64.1044,297.2748,0,U,40973,999,11322,.33723E-3,.4036E-4,0
BISONSAT,2015-058L,2026-06-06T13:04:42.290688,15.15972726,.0078299,64.7585,208.0451,51.6298,309.1826,0,U,40974,999,11400,.64215E-3,.13202E-3,0
SNAP-3 JIMI,2015-058M,2026-06-06T14:30:23.527872,15.02206649,.01056471,64.7651,253.2536,59.7101,301.4419,0,U,40975,999,11263,.43790818E-3,.635E-4,0
PROPCUBE 1 (FLORA),2015-058N,2026-06-07T04:33:17.950176,14.89174144,.01302907,64.7758,326.2201,64.8488,296.6072,0,U,40976,999,11477,.30603419E-3,.3226E-4,0
SINOD-D 3,2015-058P,2026-06-07T03:11:48.584544,14.93950826,.01188085,64.7736,307.2134,62.1322,299.1766,0,U,40977,999,11325,.36433068E-3,.4296E-4,0
HORYU-4,2016-012D,2026-06-07T06:47:51.674208,15.88791967,.00027589,30.9849,151.3730,206.2539,153.7981,0,U,41340,999,56923,.10049463E-2,.308228E-2,0
RAVAN,2016-067B,2026-06-06T23:59:43.311840,15.53702529,.00058608,97.9898,46.4020,59.1905,300.9923,0,U,41849,999,52611,.86436769E-3,.55515E-3,0
CELTEE 1,2016-067C,2026-06-06T14:32:18.763008,15.19578770,.0000654,98.0683,23.4510,88.6559,271.4749,0,U,41850,999,52427,.30592192E-3,.6433E-4,0
OPTICUBE 04,2016-067D,2026-06-06T20:55:14.883456,15.09614970,.00163134,98.0710,9.6171,148.3966,211.8245,0,U,41851,999,52361,.19346843E-3,.3048E-4,0
AEROCUBE 8D,2016-067E,2026-06-06T14:05:04.970976,15.24248501,.00040019,98.0694,26.9520,150.7564,209.3896,0,U,41852,999,52445,.40832951E-3,.9889E-4,0
AEROCUBE 8C,2016-067F,2026-06-06T14:43:32.629440,15.24494142,.000676,98.0565,24.2218,96.9523,263.2482,0,U,41853,999,52445,.38541822E-3,.9402E-4,0
CORVUS BC2,2017-042X,2026-06-06T16:46:05.947680,15.06231398,.00141517,97.4066,319.4581,142.1285,218.0941,0,U,42846,999,48548,.26633895E-3,.3855E-4,0
CORVUS BC1,2017-042Y,2026-06-06T05:30:28.381824,15.06396296,.00133651,97.4093,319.8140,122.2429,238.0096,0,U,42847,999,48544,.25816413E-3,.3751E-4,0
MAKERSAT 0,2017-073D,2026-06-06T14:21:22.122144,15.31712547,.01062905,97.4643,40.0370,311.3073,47.9054,0,U,43016,999,46484,.72748152E-3,.26582E-3,0
