PERSEUS-M1              
1 40039U 14033AF  26157.66616448  .00002719  00000+0  25013-3 0  9991
2 40039  97.9642 101.6258 0010860 341.2925  18.7895 14.95601690649063
POLYITAN-1              
1 40042U 14033AJ  26157.87019680  .00021098  00000+0  66513-3 0  9994
2 40042  98.0951 183.1584 0007835 171.6009 188.5364 15.32894505652012
AEROCUBE 6A             
1 40045U 14033AM  26158.00437801  .00007200  00000+0  60504-3 0  9995
2 40045  97.7225 325.0620 0039323  51.5836 308.8906 14.97996925645092
AEROCUBE 6B             
1 40046U 14033AN  26158.21684016  .00007510  00000+0  60745-3 0  9992
2 40046  97.7234 325.0394 0038934  43.1122 317.3139 14.99460154645267
CANX-4                  
1 40055U 14034C   26157.95170602  .00001015  00000+0  13745-3 0  9996
2 40055  98.3134  32.8885 0013807  48.0751 312.1635 14.81245872643019
CANX-5                  
1 40056U 14034D   26157.88270721  .00001024  00000+0  13859-3 0  9998
2 40056  98.3137  32.8600 0013805  48.4720 311.7673 14.81262857633812
UKUBE-1                 
1 40074U 14037F   26158.25116136  .00008449  00000+0  47747-3 0  9993
2 40074  98.4243 160.4805 0002055 144.3417 215.7950 15.13394212647059
BRITE-PL2 (HEWELIUSZ)   
1 40119U 14049B   26157.19256091  .00003210  00000+0  30175-3 0  9991
2 40119  97.9087 269.1089 0015051 141.6770 218.5523 14.94554868639806
AEROCUBE 5C             
1 40965U 15058B   26158.11273843  .00003078  00000+0  27614-3 0  9994
2 40965  64.7683 293.9303 0130376  67.2175 294.2650 14.91405632364159
AEROCUBE 7              
1 40966U 15058C   26158.07092630  .00004175  00000+0  33773-3 0  9995
2 40966  64.7629 276.5006 0120099  65.7312 295.6293 14.95660102364443
FOX-1A (AO-85)          
1 40967U 15058D   26157.62044007  .00003329  00000+0  30158-3 0  9995
2 40967  64.7764 311.8208 0129891  60.7292 300.6731 14.90916620111990
SINOD-D 1               
1 40968U 15058E   26158.11694669  .00004197  00000+0  33912-3 0  9991
2 40968  64.7760 290.4471 0118484  57.0968 304.1480 14.95839766115158
SNAP-3 ALICE            
1 40970U 15058G   26158.23055882  .00119614  00000+0  15421-2 0  9990
2 40970  64.7499 138.2889 0031026  17.6779 342.5437 15.57814323115339
LMRST-SAT               
1 40971U 15058H   26157.77434296  .00003354  00000+0  30547-3 0  9999
2 40971  64.7770 307.6608 0131558  62.6902 298.7533 14.90541819112005
SNAP-3 EDDIE            
1 40972U 15058J   26157.65100060  .00135511  00000+0  16760-2 0  9997
2 40972  64.7422 131.0874 0030935  22.1287 338.1185 15.58856529117388
PROPCUBE 3              
1 40973U 15058K   26157.63466296  .00004036  00000+0  33723-3 0  9998
2 40973  64.7695 285.5042 0123585  64.1044 297.2748 14.94197291113226
BISONSAT                
1 40974U 15058L   26157.54493392  .00013202  00000+0  64215-3 0  9991
2 40974  64.7585 208.0451 0078299  51.6298 309.1826 15.15972726114007
SNAP-3 JIMI             
1 40975U 15058M   26157.60443898  .00006350  00000+0  43791-3 0  9997
2 40975  64.7651 253.2536 0105647  59.7101 301.4419 15.02206649112638
PROPCUBE 1 (FLORA)      
1 40976U 15058N   26158.18979109  .00003226  00000+0  30603-3 0  9998
2 40976  64.7758 326.2201 0130291  64.8488 296.6072 14.89174144114770
SINOD-D 3               
1 40977U 15058P   26158.13320120  .00004296  00000+0  36433-3 0  9992
2 40977  64.7736 307.2134 0118809  62.1322 299.1766 14.93950826113254
HORYU-4                 
1 41340U 16012D   26158.28323697  .00308228  00000+0  10049-2 0  9992
2 41340  30.9849 151.3730 0002758 206.2539 153.7981 15.88791967569236
RAVAN                   
1 41849U 16067B   26157.99980684  .00055515  00000+0  86437-3 0  9991
2 41849  97.9898  46.4020 0005861  59.1905 300.9923 15.53702529526113
CELTEE 1                
1 41850U 16067C   26157.60577272  .00006433  00000+0  30592-3 0  9992
2 41850  98.0683  23.4510 0000654  88.6559 271.4749 15.19578770524279
OPTICUBE 04             
1 41851U 16067D   26157.87170004  .00003048  00000+0  19347-3 0  9998
2 41851  98.0710   9.6171 0016313 148.3966 211.8245 15.09614970523613
AEROCUBE 8D             
1 41852U 16067E   26157.58686309  .00009889  00000+0  40833-3 0  9990
2 41852  98.0694  26.9520 0004001 150.7564 209.3896 15.24248501524454
AEROCUBE 8C             
1 41853U 16067F   26157.61357210  .00009402  00000+0  38542-3 0  9996
2 41853  98.0565  24.2218 0006760  96.9523 263.2482 15.24494142524451
CORVUS BC2              
1 42846U 17042X   26157.69867995  .00003855  00000+0  26634-3 0  9992
2 42846  97.4066 319.4581 0014151 142.1285 218.0941 15.06231398485486
CORVUS BC1              
1 42847U 17042Y   26157.22949516  .00003751  00000+0  25816-3 0  9998
2 42847  97.4093 319.8140 0013365 122.2429 238.0096 15.06396296485445
MAKERSAT 0              
1 43016U 17073D   26157.59817271  .00026582  00000+0  72748-3 0  9996
2 43016  97.4643  40.0370 0106290 311.3073  47.9054 15.31712547464840
